#dP2024  2  7  0  0  0.00000000      97 __u+U IGS20 FIT  IAC
## 2300 259200.00000000   900.00000000 60347 0.0000000000000
+  120   C06C07C08C09C10C11C12C13C14C16C19C20C21C22C23C24C25
+        C26C27C28C29C30C32C33C34C35C36C37C38C39C40C41C42C43
+        C44C45C46E02E03E04E05E07E08E09E10E11E12E13E14E15E18
+        E19E21E24E25E26E27E30E31E33E34E36G01G02G03G04G05G06
+        G07G08G09G10G11G12G13G14G15G16G17G18G19G20G21G22G23
+        G24G25G26G27G28G29G30G31G32J02J03J04R01R02R03R04R05
+        R07R08R09R11R12R13R14R15R16R17R18R19R20R21R22R24R25
+        R26  0  0  0  0  0  0  0  0  0  0  0  0  0  0  0  0
++         7  7  7  7  7  7  7  7  7  7  5  5  6  6  5  6  6
++         5  6  6  6  6  5  6  6  6  6  5  6  6  6  6  6  5
++         6  6  5  4  4  4  4  4  4  4  4  5  4  4  4  4  4
++         4  4  4  4  4  4  4  4  4  4  4  4  4  3  3  3  3
++         3  4  3  3  3  3  3  3  4  3  3  3  3  4  3  3  3
++         3  3  3  4  3  3  3  3  3  9  9 11  7  6  7  6  6
++         6  6  7  6  6  7  7  7  7  7  7  8  7  6  6  7  7
++         8  0  0  0  0  0  0  0  0  0  0  0  0  0  0  0  0
%c M  cc GPS ccc cccc cccc cccc cccc ccccc ccccc ccccc ccccc
%c cc cc ccc ccc cccc cccc cccc cccc ccccc ccccc ccccc ccccc
%f  1.2500000  1.025000000  0.00000000000  0.000000000000000
%f  0.0000000  0.000000000  0.00000000000  0.000000000000000
%i    0    0    0    0      0      0      0      0         0
%i    0    0    0    0      0      0      0      0         0
/* INFORMATION & ANALYSIS CENTER (IAC)            FINAL DATA
/* S/V CLOCKS ARE ALIGNED TO GNSS TIME                      
/* G:C1WC2W R:C1PC2P E:C1XC5X C:C2IC6I J:C1CC2S             
/* PCV:IGS20_2290 OL/AL:FES2004  NONE     YN ORB:CoN CLK:CoN
*  2024 02 07 20  0  0.00000000
PC06  -8755.290580  40458.945557   8845.112244     95.620330
PC07  -6062.083931  27248.796485 -31484.158514   -764.622249
PC08 -19627.443484  27017.234940  25598.006420     55.474092
PC09  -4414.370861  42269.344345     13.531609   -459.121155
PC10   1677.425612  29168.935756 -29928.335819     94.378889
PC11 -12716.106644  10584.416915 -22400.858620    398.800105
PC12 -16382.837078 -10826.575277 -19784.128815    775.533345
PC13 -10223.019733  27381.509249  30435.390442    415.288059
PC14 -22217.727406   5587.838088  15990.354749    139.660094
PC16  -9842.966428  39752.260258  11002.437610   -326.468075
PC19  14053.836793 -11259.020334 -21284.578735   -929.058286
PC20  26150.814522    -87.585678  -9686.512779   -140.732191
PC21 -23474.917183 -12210.356140  -8883.624826   -962.583334
PC22  -6846.885874 -16644.380519 -21331.951242   -118.223830
PC23  -4557.449433  21939.989577 -16633.836160   -782.854253
PC24 -22264.715547   7133.670271  15193.349820    863.400634
PC25 -18119.891739  21154.663152  -1516.859078    320.673581
PC26 -13229.633729  -9661.341037  22567.223612   -245.942735
PC27  15147.289854  18973.321075  13753.891218    267.952061
PC28   6398.949866  27128.545305  -1398.269888    203.709046
PC29   7390.489482 -19584.515253  18448.065818    238.736482
PC30  16611.483971    337.614190  22417.226925    -22.602869
PC32  23475.575161  12095.315658   9019.989688   -564.265180
PC33 -14116.689365  11332.047355  21249.878966   -947.151760
PC34 -16259.214233   1487.384994 -22639.894966    364.361989
PC35  -7346.564106 -26857.460239   1475.087844    438.976080
PC36  18903.669292 -20514.311168    996.918890    -23.264817
PC37  12687.396357  10331.870596 -22605.856627   -934.910686
PC38 -25194.801695  28481.560335  18114.886812    135.396987
PC39 -11617.831851  36658.947339  17597.813094     -7.023482
PC40 -10284.032168  21139.240006 -34988.343492    -55.493547
PC41   5931.393245  16640.459029  21656.569734   -887.908772
PC42 -26664.956152   -906.531948   8274.163090   -456.684949
PC43  -8101.329383  18885.580141 -18900.665805     59.537035
PC44 -15914.226093 -18442.311705 -13596.141678    377.640007
PC45   4473.005285 -21798.610179  16843.264597    -68.622040
PC46  22435.906264  -8008.515154 -14582.122813   -121.990346
PE02 -26372.997561  11010.689435  -7675.701257    101.531924
PE03 -15994.262824   7193.432100  23844.851367    -92.312797
PE04  -1133.138158 -21863.098307 -19913.064419   -321.981535
PE05 -23541.855313 -11446.347576  13820.979324   4717.867695
PE07  17121.797868  23668.908492   4762.881990   -102.573673
PE08    574.223544  21457.324490  20380.040586   -220.314809
PE09 -17090.130371 -23674.895140  -4887.160187   -327.888174
PE10   1418.577772 -27532.090546 -10775.778431   -600.196574
PE11  -5991.022195 -21819.919624 -19076.643055   3258.435535
PE12   7852.504524 -28470.092483  -1795.589275   -896.559723
PE13   5488.914026  22325.496803  18660.187592    -20.119915
PE14 -26303.575435 -11183.726491 -15356.766901     32.930874
PE15  -8163.048299  28432.165677   1264.058782    -84.537267
PE18  18479.263610   3568.691005  14320.719928    300.751052
PE19  17398.284780  -4890.363819 -23435.505222   -659.068836
PE21  27727.226368   1301.591057 -10300.330741   -577.862540
PE24 -12465.618562 -13705.949640  23056.751696   -585.639297
PE25 -27572.153898  -1570.966559  10634.649660      0.574161
PE26  16075.333243   2606.938592  24726.628159    362.164653
PE27  12955.930627  13441.216668 -22980.144414   -269.019159
PE30  -9573.807482  17530.674931 -21855.994777   -888.461902
PE31   9304.619061 -17523.316048  21967.941347    -15.491474
PE33  16957.036746 -17273.497576  17044.370580      7.232738
PE34 -16807.014127  17813.737760 -16622.505461    -93.370625
PE36 -15714.503761  -3258.141909 -24864.458541   -182.772747
PG01  12358.991162 -21934.987598   7580.387619    168.668569
PG02  14403.520793 -16366.296476  15493.386089   -488.974499
PG03  21304.652801 -12015.006861 -10351.932769    178.454873
PG04  11301.907161 -10048.342564 -21818.227963    286.017624
PG05 -25874.768378   5927.968005  -2011.946823   -160.943039
PG06  -8191.829518 -16161.848968 -19308.399983    415.906251
PG07   4356.590104 -25615.975438   4567.655505    -56.475211
PG08  17627.379717  -2159.176965  19782.204575   -165.919661
PG09  -1071.510466 -19348.053872 -18221.458242     84.573419
PG10  10667.249038  12137.677305  21348.395242    -72.411324
PG11 -14421.936435  -4461.670821 -21826.796124   -567.990096
PG12 -22187.313247  10718.515423 -10109.421627   -475.731494
PG13 -19359.200088  -8517.763689  15999.228219    623.408301
PG14  -6337.431389 -14448.914305  21404.222030    319.719115
PG15 -17446.590123   4234.511358  19147.968414    125.341154
PG16  25764.705417   1602.413862  -7531.523199   -367.611049
PG17 -11126.282237 -22606.972138   8575.791956    717.690799
PG18  -4405.474203  25539.178673   5360.971120   -550.490258
PG19 -16891.392642 -20717.099937  -1407.499652    437.492915
PG20 -22199.245609  -1587.376752 -14310.293493    388.361795
PG21  15569.722484 -10616.255282  18788.918739    135.741745
PG22 -13774.931024 -11916.935173  19658.988197     34.986968
PG23  -3369.478118  15661.303491  21171.588370    151.381084
PG24 -14816.874865  14811.232997  15671.676397   -427.902993
PG25 -12324.928775  15962.941549 -17481.719654    487.876268
PG26  20198.929043   6387.456865 -16382.038112    192.597154
PG27  21369.355594  10305.988753  12097.717722     -1.991044
PG28   7598.973315  18615.311481 -17377.388180   -123.508347
PG29  -1823.942531  18419.984898 -19058.391516   -607.396728
PG30  -3520.332197 -22540.999640  13500.395518   -435.531136
PG31  12889.757464   9386.759124 -21397.682195   -227.687418
PG32  15123.377118  21328.919974   5465.006358   -610.332200
PJ02 -34839.582365  16010.555903 -12903.165527     -1.784763
PJ03 -21142.135066  30865.692882 -14724.866833     -0.215697
PJ04 -24824.377545  28501.437474  24439.425699     50.965414
PR01  -8614.674259   8028.457866  22633.672543     76.571677
PR02   9188.120635  14205.524456  19166.437318    -22.456563
PR03  21827.393350  12434.208332   4664.127311     94.094518
PR04  22070.783510   4208.288120 -12060.090056    222.449490
PR05  10599.736927  -6394.446428 -22292.125353    126.549599
PR07 -22129.989981 -12079.751463  -3643.930499     75.312706
PR08 -22002.144933  -3745.603558  12381.084459    -74.329462
PR09   3442.825945 -15184.996719  20191.981061    168.734154
PR11 -20788.483224   7749.995738  12605.176368     35.076818
PR12 -18049.921213  16804.037587  -6468.246229     36.493385
PR13  -6050.655862  15852.241934 -19065.000110    -44.128595
PR14  11997.266963   4518.486838 -22045.532138     26.030645
PR15  21222.462822  -8545.010402 -11266.872141     82.400216
PR16  18117.337670 -16817.368733   6229.504778     23.100540
PR17   9336.113628  16293.789137  17257.303641     59.326606
PR18  10471.269778   -653.661550  23269.062155    126.225220
PR19   7487.412120 -15947.543378  18448.835370   -264.951573
PR20  -1312.760230 -25446.015075   -409.547131   -107.941922
PR21  -9207.769901 -16160.306047 -17462.299744    -75.168763
PR22 -10801.822977   1650.021766 -23020.565334    106.986760
PR24   2662.681291  25344.246747   1042.539143    -42.995594
PR25  -8902.993669 -16598.533433 -17201.859842     90.165900
PR26 -22391.725728  -4224.165566  11509.494466   -199.511155
EOF
